CCSDS_OMM_VERS = 2.0
CREATION_DATE  = 
ORIGINATOR     = 

OBJECT_NAME    = UNKNOWN
OBJECT_ID      = 
CENTER_NAME    = EARTH
REF_FRAME      = TEME
TIME_SYSTEM    = UTC
MEAN_ELEMENT_THEORY = SGP/SGP4

EPOCH          = 2026-03-21T04:29:38.853600
MEAN_MOTION    = 13.76937339
ECCENTRICITY   = .0021454
INCLINATION    = 100.0576
RA_OF_ASC_NODE = 73.9813
ARG_OF_PERICENTER = 19.9312
MEAN_ANOMALY   = 340.2669

EPHEMERIS_TYPE = 0
CLASSIFICATION_TYPE = U
NORAD_CAT_ID   = 81893
ELEMENT_SET_NO = 999
REV_AT_EPOCH   = 61762
BSTAR          = .99781E-3
MEAN_MOTION_DOT = .936E-5
MEAN_MOTION_DDOT = 0

CCSDS_OMM_VERS = 2.0
CREATION_DATE  = 
ORIGINATOR     = 

OBJECT_NAME    = UNKNOWN
OBJECT_ID      = 
CENTER_NAME    = EARTH
REF_FRAME      = TEME
TIME_SYSTEM    = UTC
MEAN_ELEMENT_THEORY = SGP/SGP4

EPOCH          = 2026-03-25T13:03:53.682048
MEAN_MOTION    = 13.20536758
ECCENTRICITY   = .0169076
INCLINATION    = 102.4117
RA_OF_ASC_NODE = 209.8803
ARG_OF_PERICENTER = 356.0901
MEAN_ANOMALY   = 3.8877

EPHEMERIS_TYPE = 0
CLASSIFICATION_TYPE = U
NORAD_CAT_ID   = 81899
ELEMENT_SET_NO = 999
REV_AT_EPOCH   = 59255
BSTAR          = .4181E-2
MEAN_MOTION_DOT = .1769E-4
MEAN_MOTION_DDOT = 0

CCSDS_OMM_VERS = 2.0
CREATION_DATE  = 
ORIGINATOR     = 

OBJECT_NAME    = UNKNOWN
OBJECT_ID      = 
CENTER_NAME    = EARTH
REF_FRAME      = TEME
TIME_SYSTEM    = UTC
MEAN_ELEMENT_THEORY = SGP/SGP4

EPOCH          = 2026-03-21T00:40:32.795040
MEAN_MOTION    = 13.15483007
ECCENTRICITY   = .0843178
INCLINATION    = 65.7092
RA_OF_ASC_NODE = 189.9770
ARG_OF_PERICENTER = 71.9683
MEAN_ANOMALY   = 297.1320

EPHEMERIS_TYPE = 0
CLASSIFICATION_TYPE = U
NORAD_CAT_ID   = 81921
ELEMENT_SET_NO = 999
REV_AT_EPOCH   = 3871
BSTAR          = .17021E-3
MEAN_MOTION_DOT = .337E-5
MEAN_MOTION_DDOT = 0

CCSDS_OMM_VERS = 2.0
CREATION_DATE  = 
ORIGINATOR     = 

OBJECT_NAME    = UNKNOWN
OBJECT_ID      = 
CENTER_NAME    = EARTH
REF_FRAME      = TEME
TIME_SYSTEM    = UTC
MEAN_ELEMENT_THEORY = SGP/SGP4

EPOCH          = 2026-03-23T16:06:15.704640
MEAN_MOTION    = 12.42648810
ECCENTRICITY   = .067828
INCLINATION    = 66.4171
RA_OF_ASC_NODE = 318.4732
ARG_OF_PERICENTER = 302.8037
MEAN_ANOMALY   = 85.1167

EPHEMERIS_TYPE = 0
CLASSIFICATION_TYPE = U
NORAD_CAT_ID   = 81946
ELEMENT_SET_NO = 999
REV_AT_EPOCH   = 56042
BSTAR          = .47159E-3
MEAN_MOTION_DOT = .92E-6
MEAN_MOTION_DDOT = 0

CCSDS_OMM_VERS = 2.0
CREATION_DATE  = 
ORIGINATOR     = 

OBJECT_NAME    = UNKNOWN
OBJECT_ID      = 
CENTER_NAME    = EARTH
REF_FRAME      = TEME
TIME_SYSTEM    = UTC
MEAN_ELEMENT_THEORY = SGP/SGP4

EPOCH          = 2026-03-21T21:00:58.204224
MEAN_MOTION    = 14.53887564
ECCENTRICITY   = .0367607
INCLINATION    = 66.0728
RA_OF_ASC_NODE = 251.3533
ARG_OF_PERICENTER = 80.2587
MEAN_ANOMALY   = 283.9823

EPHEMERIS_TYPE = 0
CLASSIFICATION_TYPE = U
NORAD_CAT_ID   = 81947
ELEMENT_SET_NO = 999
REV_AT_EPOCH   = 64542
BSTAR          = .62114E-3
MEAN_MOTION_DOT = .6393E-4
MEAN_MOTION_DDOT = 0

CCSDS_OMM_VERS = 2.0
CREATION_DATE  = 
ORIGINATOR     = 

OBJECT_NAME    = UNKNOWN
OBJECT_ID      = 
CENTER_NAME    = EARTH
REF_FRAME      = TEME
TIME_SYSTEM    = UTC
MEAN_ELEMENT_THEORY = SGP/SGP4

EPOCH          = 2026-03-25T11:50:11.675616
MEAN_MOTION    = 13.95869773
ECCENTRICITY   = .0035153
INCLINATION    = 66.5872
RA_OF_ASC_NODE = 3.5827
ARG_OF_PERICENTER = 6.8055
MEAN_ANOMALY   = 353.3494

EPHEMERIS_TYPE = 0
CLASSIFICATION_TYPE = U
NORAD_CAT_ID   = 81964
ELEMENT_SET_NO = 999
REV_AT_EPOCH   = 62838
BSTAR          = .23867E-3
MEAN_MOTION_DOT = .249E-5
MEAN_MOTION_DDOT = 0

CCSDS_OMM_VERS = 2.0
CREATION_DATE  = 
ORIGINATOR     = 

OBJECT_NAME    = UNKNOWN
OBJECT_ID      = 
CENTER_NAME    = EARTH
REF_FRAME      = TEME
TIME_SYSTEM    = UTC
MEAN_ELEMENT_THEORY = SGP/SGP4

EPOCH          = 2026-03-25T12:08:46.489632
MEAN_MOTION    = 15.13611966
ECCENTRICITY   = .0006232
INCLINATION    = 86.6802
RA_OF_ASC_NODE = 108.7426
ARG_OF_PERICENTER = 130.6520
MEAN_ANOMALY   = 229.5263

EPHEMERIS_TYPE = 0
CLASSIFICATION_TYPE = U
NORAD_CAT_ID   = 81969
ELEMENT_SET_NO = 999
REV_AT_EPOCH   = 45570
BSTAR          = .50138E-3
MEAN_MOTION_DOT = .9037E-4
MEAN_MOTION_DDOT = 0

CCSDS_OMM_VERS = 2.0
CREATION_DATE  = 
ORIGINATOR     = 

OBJECT_NAME    = UNKNOWN
OBJECT_ID      = 
CENTER_NAME    = EARTH
REF_FRAME      = TEME
TIME_SYSTEM    = UTC
MEAN_ELEMENT_THEORY = SGP/SGP4

EPOCH          = 2026-03-20T16:37:31.606752
MEAN_MOTION    = 14.05162986
ECCENTRICITY   = .0515232
INCLINATION    = 65.7483
RA_OF_ASC_NODE = 227.4495
ARG_OF_PERICENTER = 248.9038
MEAN_ANOMALY   = 105.6236

EPHEMERIS_TYPE = 0
CLASSIFICATION_TYPE = U
NORAD_CAT_ID   = 81995
ELEMENT_SET_NO = 999
REV_AT_EPOCH   = 61798
BSTAR          = .11112E-2
MEAN_MOTION_DOT = .5975E-4
MEAN_MOTION_DDOT = 0

CCSDS_OMM_VERS = 2.0
CREATION_DATE  = 
ORIGINATOR     = 

OBJECT_NAME    = UNKNOWN
OBJECT_ID      = 
CENTER_NAME    = EARTH
REF_FRAME      = TEME
TIME_SYSTEM    = UTC
MEAN_ELEMENT_THEORY = SGP/SGP4

EPOCH          = 2026-03-23T20:06:56.839968
MEAN_MOTION    = 14.33215982
ECCENTRICITY   = .0230797
INCLINATION    = 97.9411
RA_OF_ASC_NODE = 228.1607
ARG_OF_PERICENTER = 139.2063
MEAN_ANOMALY   = 222.6660

EPHEMERIS_TYPE = 0
CLASSIFICATION_TYPE = U
NORAD_CAT_ID   = 82043
ELEMENT_SET_NO = 999
REV_AT_EPOCH   = 58832
BSTAR          = .10655E-2
MEAN_MOTION_DOT = .3901E-4
MEAN_MOTION_DDOT = 0

CCSDS_OMM_VERS = 2.0
CREATION_DATE  = 
ORIGINATOR     = 

OBJECT_NAME    = UNKNOWN
OBJECT_ID      = 
CENTER_NAME    = EARTH
REF_FRAME      = TEME
TIME_SYSTEM    = UTC
MEAN_ELEMENT_THEORY = SGP/SGP4

EPOCH          = 2026-03-22T23:39:51.163776
MEAN_MOTION    = 14.37231523
ECCENTRICITY   = .0088316
INCLINATION    = 98.7386
RA_OF_ASC_NODE = 174.0277
ARG_OF_PERICENTER = 323.2320
MEAN_ANOMALY   = 36.2829

EPHEMERIS_TYPE = 0
CLASSIFICATION_TYPE = U
NORAD_CAT_ID   = 82051
ELEMENT_SET_NO = 999
REV_AT_EPOCH   = 58680
BSTAR          = .16906E-2
MEAN_MOTION_DOT = .5222E-4
MEAN_MOTION_DDOT = 0

CCSDS_OMM_VERS = 2.0
CREATION_DATE  = 
ORIGINATOR     = 

OBJECT_NAME    = UNKNOWN
OBJECT_ID      = 
CENTER_NAME    = EARTH
REF_FRAME      = TEME
TIME_SYSTEM    = UTC
MEAN_ELEMENT_THEORY = SGP/SGP4

EPOCH          = 2026-03-25T15:28:58.227168
MEAN_MOTION    = 14.39542593
ECCENTRICITY   = .0204427
INCLINATION    = 97.7365
RA_OF_ASC_NODE = 155.9535
ARG_OF_PERICENTER = 333.7273
MEAN_ANOMALY   = 25.3659

EPHEMERIS_TYPE = 0
CLASSIFICATION_TYPE = U
NORAD_CAT_ID   = 82073
ELEMENT_SET_NO = 999
REV_AT_EPOCH   = 58992
BSTAR          = .44127E-3
MEAN_MOTION_DOT = .1714E-4
MEAN_MOTION_DDOT = 0

CCSDS_OMM_VERS = 2.0
CREATION_DATE  = 
ORIGINATOR     = 

OBJECT_NAME    = UNKNOWN
OBJECT_ID      = 
CENTER_NAME    = EARTH
REF_FRAME      = TEME
TIME_SYSTEM    = UTC
MEAN_ELEMENT_THEORY = SGP/SGP4

EPOCH          = 2026-03-23T03:25:54.208992
MEAN_MOTION    = 14.15980665
ECCENTRICITY   = .0084246
INCLINATION    = 99.0109
RA_OF_ASC_NODE = 156.2112
ARG_OF_PERICENTER = 118.9913
MEAN_ANOMALY   = 241.9737

EPHEMERIS_TYPE = 0
CLASSIFICATION_TYPE = U
NORAD_CAT_ID   = 82139
ELEMENT_SET_NO = 999
REV_AT_EPOCH   = 49432
BSTAR          = .14364E-2
MEAN_MOTION_DOT = .2887E-4
MEAN_MOTION_DDOT = 0

