UNKNOWN                 
1 81893U          26080.18725525  .00000936  00000+0  99781-3 0  9994
2 81893 100.0576  73.9813 0021454  19.9312 340.2669 13.76937339617625
UNKNOWN                 
1 81899U          26084.54437132  .00001769  00000+0  41810-2 0  9992
2 81899 102.4117 209.8803 0169076 356.0901   3.8877 13.20536758592555
UNKNOWN                 
1 81921U          26080.02815735  .00000337  00000+0  17021-3 0  9994
2 81921  65.7092 189.9770 0843178  71.9683 297.1320 13.15483007 38713
UNKNOWN                 
1 81946U          26082.67101510  .00000092  00000+0  47159-3 0  9996
2 81946  66.4171 318.4732 0678280 302.8037  85.1167 12.42648810560428
UNKNOWN                 
1 81947U          26080.87567366  .00006393  00000+0  62114-3 0  9990
2 81947  66.0728 251.3533 0367607  80.2587 283.9823 14.53887564645428
UNKNOWN                 
1 81964U          26084.49319069  .00000249  00000+0  23867-3 0  9992
2 81964  66.5872   3.5827 0035153   6.8055 353.3494 13.95869773628386
UNKNOWN                 
1 81969U          26084.50609363  .00009037  00000+0  50138-3 0  9993
2 81969  86.6802 108.7426 0006232 130.6520 229.5263 15.13611966455702
UNKNOWN                 
1 81995U          26079.69272693  .00005975  00000+0  11112-2 0  9993
2 81995  65.7483 227.4495 0515232 248.9038 105.6236 14.05162986617988
UNKNOWN                 
1 82043U          26082.83815787  .00003901  00000+0  10655-2 0  9993
2 82043  97.9411 228.1607 0230797 139.2063 222.6660 14.33215982588326
UNKNOWN                 
1 82051U          26081.98600884  .00005222  00000+0  16906-2 0  9990
2 82051  98.7386 174.0277 0088316 323.2320  36.2829 14.37231523586806
UNKNOWN                 
1 82073U          26084.64511837  .00001714  00000+0  44127-3 0  9998
2 82073  97.7365 155.9535 0204427 333.7273  25.3659 14.39542593589927
UNKNOWN                 
1 82139U          26082.14298853  .00002887  00000+0  14364-2 0  9995
2 82139  99.0109 156.2112 0084246 118.9913 241.9737 14.15980665494327
